{
  "norad_id": 62019,
  "name": "STARLINK-11404 [DTC]",
  "history": [
    {
      "epoch": "2026-03-28T20:58:10.791264Z",
      "apogee_km": 360.4309388541569,
      "perigee_km": 359.1178546811552,
      "latitude_deg": 1.3186397542585098e-05,
      "longitude_deg": 166.19561679936265,
      "height_km": 360.8312423979675,
      "semi_major_axis_km": 6737.911396767656,
      "eccentricity": 9.744e-05,
      "inclination_deg": 53.1575,
      "raan_deg": 307.0285,
      "arg_perigee_deg": 102.6047,
      "mean_anomaly_deg": 257.508,
      "mean_motion_rev_day": 15.6969335
    }
  ]
}