{"fetched_at":"2026-03-30T09:12:31Z","count":15922,"tles":[{"name":"STARLINK-11404 [DTC]","line1":"1 62019U 24213M   26087.87373601  .00243824  00000+0  19601-2 0  9999","line2":"2 62019  53.1575 307.0285 0000974 102.6047 257.5080 15.69693350 77920","category":"Starlink"}]}